[{"OBJECT_NAME":"STARLINK-34285","OBJECT_ID":"2025-167Z","EPOCH":"2026-03-09T23:12:39.118752","MEAN_MOTION":15.30267921,"ECCENTRICITY":9.778e-5,"INCLINATION":53.1595,"RA_OF_ASC_NODE":25.2755,"ARG_OF_PERICENTER":89.242,"MEAN_ANOMALY":270.8693,"EPHEMERIS_TYPE":0,"CLASSIFICATION_TYPE":"U","NORAD_CAT_ID":65101,"ELEMENT_SET_NO":999,"REV_AT_EPOCH":3352,"BSTAR":0.0016275255,"MEAN_MOTION_DOT":0.00048259,"MEAN_MOTION_DDOT":0},{"OBJECT_NAME":"OBJECT BC","OBJECT_ID":"2025-313BC","EPOCH":"2026-03-09T04:33:08.504064","MEAN_MOTION":15.29126358,"ECCENTRICITY":0.00084789,"INCLINATION":97.3985,"RA_OF_ASC_NODE":144.811,"ARG_OF_PERICENTER":328.9209,"MEAN_ANOMALY":31.1528,"EPHEMERIS_TYPE":0,"CLASSIFICATION_TYPE":"U","NORAD_CAT_ID":67298,"ELEMENT_SET_NO":999,"REV_AT_EPOCH":789,"BSTAR":0.0026410397,"MEAN_MOTION_DOT":0.00075331,"MEAN_MOTION_DDOT":0}]
